NORAD_CAT_ID,OBJECT_NAME,OBJECT_TYPE,EPOCH,MEAN_MOTION,ECCENTRICITY,INCLINATION,RA_OF_ASC_NODE,ARG_OF_PERICENTER,MEAN_ANOMALY,BSTAR,MEAN_MOTION_DOT,MEAN_MOTION_DDOT,TLE_LINE0,TLE_LINE1,TLE_LINE2,SEMIMAJOR_AXIS,PERIOD,APOGEE,PERIGEE,DECAYED
53405.0,STARLINK-4510,PAYLOAD,2022-10-11 14:00:01,15.08796922,0.0001558,53.2173,313.6139,52.0431,149.7937,0.0040224,0.00064236,0.0,0 STARLINK-4510,1 53405U 22097T   22284.58334491  .00064236  00000-0  40224-2 0  9997,2 53405  53.2173 313.6139 0001558  52.0431 149.7937 15.08796922  1303,6918.012,95.44,540.955,538.799,0.0
53405.0,STARLINK-4510,PAYLOAD,2022-10-11 22:00:00,15.08797767,0.0001471,53.2177,312.1113,52.7652,160.593,0.0034645,0.00055218,0.0,0 STARLINK-4510,1 53405U 22097T   22284.91667824  .00055218  00000-0  34645-2 0  9993,2 53405  53.2177 312.1113 0001471  52.7652 160.5930 15.08797767 10109,6918.009,95.44,540.8919999999998,538.857,0.0
53405.0,STARLINK-4510,PAYLOAD,2022-10-12 14:00:01,15.08799241,0.000169,53.2175,309.1234,49.15,187.3724,0.010887,0.00177172,0.0,0 STARLINK-4510,1 53405U 22097T   22285.58334491  .00177172  00000-0  10887-1 0  9993,2 53405  53.2175 309.1234 0001690  49.1500 187.3724 15.08799241 10200,6918.005,95.44,541.039,538.701,0.0
53405.0,STARLINK-4510,PAYLOAD,2022-10-12 22:00:00,15.08913991,0.0001452,53.2176,307.6267,55.0512,193.0971,-0.0075813999999999,-0.00119196,0.0,0 STARLINK-4510,1 53405U 22097T   22285.91667824 -.00119196  00000-0 -75814-2 0  9995,2 53405  53.2176 307.6267 0001452  55.0512 193.0971 15.08913991  1304,6917.654,95.433,540.524,538.515,0.0
53405.0,STARLINK-4510,PAYLOAD,2022-10-13 14:00:01,15.08962269,0.0001576999999999,53.2172,304.6351,59.3866,211.91,-0.011144,-0.00173975,0.0,0 STARLINK-4510,1 53405U 22097T   22286.58334491 -.00173975  00000-0 -11144-1 0  9990,2 53405  53.2172 304.6351 0001577  59.3866 211.9100 15.08962269  1304,6917.507,95.43,540.4630000000002,538.281,0.0
53405.0,STARLINK-4510,PAYLOAD,2022-10-13 20:00:01,15.0883534,0.0001475,53.2175,303.5123,65.5738,124.5552,0.00016298,2.306e-05,0.0,0 STARLINK-4510,1 53405U 22097T   22286.83335648  .00002306  00000-0  16298-3 0  9997,2 53405  53.2175 303.5123 0001475  65.5738 124.5552 15.08835340 10394,6917.895,95.438,540.78,538.739,0.0
53405.0,STARLINK-4510,PAYLOAD,2022-10-13 22:00:00,15.08864483,0.0001501999999999,53.2177,303.1374,54.7395,228.2109,-0.0027517,-0.00043844,0.0,0 STARLINK-4510,1 53405U 22097T   22286.91667824 -.00043844  00000-0 -27517-2 0  9999,2 53405  53.2177 303.1374 0001502  54.7395 228.2109 15.08864483  1301,6917.806,95.436,540.71,538.632,0.0
53405.0,STARLINK-4510,PAYLOAD,2022-10-14 14:00:01,15.08845148,0.0001785,53.2172,300.146,56.4352,249.7085,-0.00085891,-0.00013934,0.0,0 STARLINK-4510,1 53405U 22097T   22287.58334491 -.00013934  00000-0 -85891-3 0  9991,2 53405  53.2172 300.1460 0001785  56.4352 249.7085 15.08845148  1302,6917.865,95.437,540.964,538.495,0.0
53405.0,STARLINK-4510,PAYLOAD,2022-10-14 20:00:01,15.08835652,0.0001718,53.2175,299.0231,60.9203,163.9223,0.00014557,2.029e-05,0.0,0 STARLINK-4510,1 53405U 22097T   22287.83334491  .00002029  00000-0  14557-3 0  9991,2 53405  53.2175 299.0231 0001718  60.9203 163.9223 15.08835652  1308,6917.894,95.438,540.947,538.57,0.0
53405.0,STARLINK-4510,PAYLOAD,2022-10-15 06:00:00,15.0883244,0.0001836,53.2179,297.1526,51.7321,277.6026,0.00046177,7.067e-05,0.0,0 STARLINK-4510,1 53405U 22097T   22288.25001157  .00007067  00000-0  46177-3 0  9998,2 53405  53.2179 297.1526 0001836  51.7321 277.6026 15.08832440 10618,6917.903,95.438,541.039,538.498,0.0
53405.0,STARLINK-4510,PAYLOAD,2022-10-15 14:00:01,15.08832848,0.0001545,53.2186,295.6524,44.4406,296.4927,0.0003776,5.725e-05,0.0,0 STARLINK-4510,1 53405U 22097T   22288.58334491  .00005725  00000-0  37760-3 0  9991,2 53405  53.2186 295.6524 0001545  44.4406 296.4927 15.08832848  1304,6917.901999999999,95.438,540.836,538.698,0.0
53405.0,STARLINK-4510,PAYLOAD,2022-10-15 22:00:01,15.08834259,0.0001754,53.2173,294.1595,48.976000000000006,303.6052,0.00026312,3.901e-05,0.0,0 STARLINK-4510,1 53405U 22097T   22288.91668981  .00003901  00000-0  26312-3 0  9997,2 53405  53.2173 294.1595 0001754  48.9760 303.6052 15.08834259  1304,6917.898,95.438,540.976,538.55,0.0
53405.0,STARLINK-4510,PAYLOAD,2022-10-16 06:00:00,15.08831048,0.0001615,53.2187,292.66,52.2383,311.8656,-0.00056989,-9.344e-05,0.0,0 STARLINK-4510,1 53405U 22097T   22289.25001157 -.00009344  00000-0 -56989-3 0  9993,2 53405  53.2187 292.6600 0001615  52.2383 311.8656 15.08831048 10768,6917.908,95.438,540.89,538.656,0.0
53405.0,STARLINK-4510,PAYLOAD,2022-10-16 14:00:01,15.08838419,0.0001631,53.2183,291.1636,49.5507,326.1222,-0.00030641,-5.161e-05,0.0,0 STARLINK-4510,1 53405U 22097T   22289.58334491 -.00005161  00000-0 -30641-3 0  9999,2 53405  53.2183 291.1636 0001631  49.5507 326.1222 15.08838419  1309,6917.885,95.438,540.879,538.622,0.0
53405.0,STARLINK-4510,PAYLOAD,2022-10-16 22:00:00,15.08820782,0.0001462,53.218,289.6665,58.3872,328.8819,0.0029825,0.00047473,0.0,0 STARLINK-4510,1 53405U 22097T   22289.91667824  .00047473  00000-0  29825-2 0  9996,2 53405  53.2180 289.6665 0001462  58.3872 328.8819 15.08820782  1300,6917.939,95.439,540.816,538.793,0.0
53405.0,STARLINK-4510,PAYLOAD,2022-10-17 06:00:00,15.08848829,0.0001595999999999,53.2183,288.1723,52.6588,346.2118,-0.002062,-0.00032963,0.0,0 STARLINK-4510,1 53405U 22097T   22290.25001157 -.00032963  00000-0 -20620-2 0  9990,2 53405  53.2183 288.1723 0001596  52.6588 346.2118 15.08848829 10916,6917.853,95.437,540.822,538.614,0.0
53405.0,STARLINK-4510,PAYLOAD,2022-10-17 14:00:01,15.08847341,0.0001583,53.2177,286.6754,48.9629,1.493,-0.00047888,-7.903e-05,0.0,0 STARLINK-4510,1 53405U 22097T   22290.58334491 -.00007903  00000-0 -47888-3 0  9998,2 53405  53.2177 286.6754 0001583  48.9629   1.4930 15.08847341  1309,6917.858,95.437,540.818,538.628,0.0
53405.0,STARLINK-4510,PAYLOAD,2022-10-17 22:00:00,15.08843565,0.0001503,53.2176,285.1787,55.813,6.2447,0.00047447,7.272e-05,0.0,0 STARLINK-4510,1 53405U 22097T   22290.91667824  .00007272  00000-0  47447-3 0  9992,2 53405  53.2176 285.1787 0001503  55.8130   6.2447 15.08843565  1304,6917.869000000002,95.437,540.774,538.695,0.0
53405.0,STARLINK-4510,PAYLOAD,2022-10-18 00:00:00,15.08864619,0.0001554,53.2177,284.805,57.2191,97.7322,-0.0022224,-0.00035507,0.0,0 STARLINK-4510,1 53405U 22097T   22291.00001157 -.00035507  00000-0 -22224-2 0  9993,2 53405  53.2177 284.8050 0001554  57.2191  97.7322 15.08864619 11023,6917.805,95.436,540.745,538.595,0.0
53405.0,STARLINK-4510,PAYLOAD,2022-10-18 14:00:01,15.08847478,0.0001710999999999,53.2175,282.186,53.3875,31.8423,-0.00089593,-0.00014521,0.0,0 STARLINK-4510,1 53405U 22097T   22291.58334491 -.00014521  00000-0 -89593-3 0  9992,2 53405  53.2175 282.1860 0001711  53.3875  31.8423 15.08847478  1307,6917.858,95.437,540.906,538.539,0.0
53405.0,STARLINK-4510,PAYLOAD,2022-10-18 22:00:00,15.088363,0.0001474,53.2173,280.6919,68.7112,28.1364,4.2412e-05,3.87e-06,0.0,0 STARLINK-4510,1 53405U 22097T   22291.91667824  .00000387  00000-0  42412-4 0  9991,2 53405  53.2173 280.6919 0001474  68.7112  28.1364 15.08836300  1308,6917.892,95.438,540.776,538.737,0.0
53405.0,STARLINK-4510,PAYLOAD,2022-10-19 14:00:01,15.08850951,0.0001699,53.2174,277.6969,52.5035,67.5125,-0.001027,-0.00016601,0.0,0 STARLINK-4510,1 53405U 22097T   22292.58334491 -.00016601  00000-0 -10270-2 0  9999,2 53405  53.2174 277.6969 0001699  52.5035  67.5125 15.08850951  1304,6917.847,95.437,540.887,538.5369999999998,0.0
53405.0,STARLINK-4510,PAYLOAD,2022-10-19 22:00:00,15.08859017,0.0001648,53.2175,276.2006,58.9545,72.6654,-0.0024254999999999,-0.00038703,0.0,0 STARLINK-4510,1 53405U 22097T   22292.91667824 -.00038703  00000-0 -24255-2 0  9990,2 53405  53.2175 276.2006 0001648  58.9545  72.6654 15.08859017  1308,6917.821999999999,95.436,540.827,538.547,0.0
53405.0,STARLINK-4510,PAYLOAD,2022-10-20 08:00:01,15.08816914,0.0001929,53.2178,274.3309,54.9234,181.2006,0.0026499,0.00042111,0.0,0 STARLINK-4510,1 53405U 22097T   22293.33334491  .00042111  00000-0  26499-2 0  9996,2 53405  53.2178 274.3309 0001929  54.9234 181.2006 15.08816914 11374,6917.951,95.439,541.15,538.481,0.0
53405.0,STARLINK-4510,PAYLOAD,2022-10-20 14:00:01,15.08865377,0.0001827,53.2177,273.2078,55.3816,99.4164,-0.0034403,-0.00054664,0.0,0 STARLINK-4510,1 53405U 22097T   22293.58334491 -.00054664  00000-0 -34403-2 0  9995,2 53405  53.2177 273.2078 0001827  55.3816  99.4164 15.08865377  1306,6917.803000000001,95.436,540.932,538.404,0.0
53405.0,STARLINK-4510,PAYLOAD,2022-10-20 22:00:00,15.08814207,0.0001710999999999,53.2177,271.7105,61.8828,104.5217,0.0020239999999999,0.00032048,0.0,0 STARLINK-4510,1 53405U 22097T   22293.91667824  .00032048  00000-0  20240-2 0  9995,2 53405  53.2177 271.7105 0001711  61.8828 104.5217 15.08814207 11468,6917.959,95.439,541.008,538.641,0.0
53405.0,STARLINK-4510,PAYLOAD,2022-10-21 14:00:01,15.088612699999995,0.0001795,53.2179,268.7189,55.6722,133.9025,-0.0012907,-0.00020783,0.0,0 STARLINK-4510,1 53405U 22097T   22294.58334491 -.00020783  00000-0 -12907-2 0  9996,2 53405  53.2179 268.7189 0001795  55.6722 133.9025 15.08861270  1301,6917.815,95.436,540.922,538.439,0.0
53405.0,STARLINK-4510,PAYLOAD,2022-10-21 22:00:00,15.08853871,0.0001678,53.2183,267.2211,61.687,139.4912,-0.00078114,-0.00012703,0.0,0 STARLINK-4510,1 53405U 22097T   22294.91667824 -.00012703  00000-0 -78114-3 0  9998,2 53405  53.2183 267.2211 0001678  61.6870 139.4912 15.08853871 11616,6917.8380000000025,95.437,540.864,538.5419999999998,0.0
53405.0,STARLINK-4510,PAYLOAD,2022-10-22 14:00:01,15.08867654,0.0001633,53.2182,264.2291,54.2195,170.1542,-0.0044549,-0.00070547,0.0,0 STARLINK-4510,1 53405U 22097T   22295.58334491 -.00070547  00000-0 -44549-2 0  9997,2 53405  53.2182 264.2291 0001633  54.2195 170.1542 15.08867654  1309,6917.795999999999,95.436,540.7909999999998,538.531,0.0
